{
  "norad_id": 44879,
  "name": "TIANQIN 1 (CAS-6)",
  "history": [
    {
      "epoch": "2026-03-28T22:02:23.350848Z",
      "apogee_km": 589.3831374071124,
      "perigee_km": 575.2692669627777,
      "latitude_deg": -8.666712400822795e-06,
      "longitude_deg": 15.435326813093535,
      "height_km": 579.3598747929653,
      "semi_major_axis_km": 6960.463202184945,
      "eccentricity": 0.00101386,
      "inclination_deg": 97.7813,
      "raan_deg": 172.3645,
      "arg_perigee_deg": 328.49,
      "mean_anomaly_deg": 31.5712,
      "mean_motion_rev_day": 14.95014997
    },
    {
      "epoch": "2026-03-29T04:27:54.332928Z",
      "apogee_km": 589.3082014747079,
      "perigee_km": 575.3093529276002,
      "latitude_deg": -3.3437550763933685e-05,
      "longitude_deg": -80.9423383350639,
      "height_km": 579.4745959804385,
      "semi_major_axis_km": 6960.445777201154,
      "eccentricity": 0.0010056,
      "inclination_deg": 97.7815,
      "raan_deg": 172.6298,
      "arg_perigee_deg": 327.2135,
      "mean_anomaly_deg": 32.846,
      "mean_motion_rev_day": 14.95020611
    },
    {
      "epoch": "2026-03-30T04:33:35.440128Z",
      "apogee_km": 589.2336736117995,
      "perigee_km": 575.3128530851036,
      "latitude_deg": -1.9320519927139507e-05,
      "longitude_deg": -82.3569559235199,
      "height_km": 579.7001467064408,
      "semi_major_axis_km": 6960.410263348452,
      "eccentricity": 0.001,
      "inclination_deg": 97.7815,
      "raan_deg": 173.626,
      "arg_perigee_deg": 323.8965,
      "mean_anomaly_deg": 36.1579,
      "mean_motion_rev_day": 14.95032053
    },
    {
      "epoch": "2026-03-30T06:09:58.155840Z",
      "apogee_km": 589.2273679376158,
      "perigee_km": 575.3143478786005,
      "latitude_deg": 5.103736368020032e-05,
      "longitude_deg": -106.45108301278022,
      "height_km": 579.7146303030307,
      "semi_major_axis_km": 6960.407857908108,
      "eccentricity": 0.00099944,
      "inclination_deg": 97.7816,
      "raan_deg": 173.6925,
      "arg_perigee_deg": 323.7051,
      "mean_anomaly_deg": 36.3491,
      "mean_motion_rev_day": 14.95032828
    },
    {
      "epoch": "2026-03-30T14:11:51.681696Z",
      "apogee_km": 589.1904360864337,
      "perigee_km": 575.3261638962877,
      "latitude_deg": -3.1636354485285736e-05,
      "longitude_deg": 133.07816078998448,
      "height_km": 579.8205293862684,
      "semi_major_axis_km": 6960.395299991361,
      "eccentricity": 0.00099594,
      "inclination_deg": 97.7819,
      "raan_deg": 174.0246,
      "arg_perigee_deg": 322.349,
      "mean_anomaly_deg": 37.7032,
      "mean_motion_rev_day": 14.95036874
    },
    {
      "epoch": "2026-03-30T22:13:45.340608Z",
      "apogee_km": 589.1975486247811,
      "perigee_km": 575.337990647482,
      "latitude_deg": 6.555404779631332e-06,
      "longitude_deg": 12.60663224767989,
      "height_km": 579.91635242447,
      "semi_major_axis_km": 6960.404769636131,
      "eccentricity": 0.0009956,
      "inclination_deg": 97.7819,
      "raan_deg": 174.3565,
      "arg_perigee_deg": 321.2212,
      "mean_anomaly_deg": 38.8293,
      "mean_motion_rev_day": 14.95033823
    },
    {
      "epoch": "2026-03-31T20:43:02.809344Z",
      "apogee_km": 589.1590443890327,
      "perigee_km": 575.3120792145846,
      "latitude_deg": -7.116630332824784e-06,
      "longitude_deg": 35.290792031109255,
      "height_km": 580.173470585049,
      "semi_major_axis_km": 6960.372561801809,
      "eccentricity": 0.0009947,
      "inclination_deg": 97.7822,
      "raan_deg": 175.287,
      "arg_perigee_deg": 317.6071,
      "mean_anomaly_deg": 42.438,
      "mean_motion_rev_day": 14.950442
    },
    {
      "epoch": "2026-04-01T20:48:42.742368Z",
      "apogee_km": 589.2049066860718,
      "perigee_km": 575.2452045473265,
      "latitude_deg": -2.684646339233672e-05,
      "longitude_deg": 33.88148546594551,
      "height_km": 580.4264359551714,
      "semi_major_axis_km": 6960.362055616699,
      "eccentricity": 0.0010028,
      "inclination_deg": 97.7822,
      "raan_deg": 176.2836,
      "arg_perigee_deg": 314.0171,
      "mean_anomaly_deg": 46.0222,
      "mean_motion_rev_day": 14.95047585
    },
    {
      "epoch": "2026-04-02T19:17:59.513856Z",
      "apogee_km": 589.2019783101678,
      "perigee_km": 575.1810925084383,
      "latitude_deg": -5.3302516637627657e-05,
      "longitude_deg": 56.56755956892158,
      "height_km": 580.6943379596332,
      "semi_major_axis_km": 6960.328535409302,
      "eccentricity": 0.0010072,
      "inclination_deg": 97.7818,
      "raan_deg": 177.2131,
      "arg_perigee_deg": 310.4577,
      "mean_anomaly_deg": 49.5764,
      "mean_motion_rev_day": 14.95058385
    }
  ]
}